[{"OBJECT_NAME":"SPAWAR-CAL-R","OBJECT_ID":"2018-099U","EPOCH":"2026-03-08T15:37:40.202400","MEAN_MOTION":15.05212097,"ECCENTRICITY":0.00197014,"INCLINATION":97.4524,"RA_OF_ASC_NODE":111.5817,"ARG_OF_PERICENTER":348.9052,"MEAN_ANOMALY":11.1737,"EPHEMERIS_TYPE":0,"CLASSIFICATION_TYPE":"U","NORAD_CAT_ID":43776,"ELEMENT_SET_NO":999,"REV_AT_EPOCH":39687,"BSTAR":0.00025335573,"MEAN_MOTION_DOT":3.57e-5,"MEAN_MOTION_DDOT":0},{"OBJECT_NAME":"STARLINK-4411","OBJECT_ID":"2022-084P","EPOCH":"2026-03-09T17:09:48.696480","MEAN_MOTION":15.05645145,"ECCENTRICITY":0.00013602,"INCLINATION":97.604,"RA_OF_ASC_NODE":131.2593,"ARG_OF_PERICENTER":96.9961,"MEAN_ANOMALY":263.142,"EPHEMERIS_TYPE":0,"CLASSIFICATION_TYPE":"U","NORAD_CAT_ID":53202,"ELEMENT_SET_NO":999,"REV_AT_EPOCH":19938,"BSTAR":3.9795947e-5,"MEAN_MOTION_DOT":5.13e-6,"MEAN_MOTION_DDOT":0}]
