SPAWAR-CAL-R            
1 43776U 18099U   26067.65115975  .00003570  00000+0  25336-3 0  9990
2 43776  97.4524 111.5817 0019701 348.9052  11.1737 15.05212097396878
STARLINK-4411           
1 53202U 22084P   26068.71514695  .00000513  00000+0  39796-4 0  9994
2 53202  97.6040 131.2593 0001360  96.9961 263.1420 15.05645145199388
